[{"OBJECT_NAME":"STARLINK-34736","OBJECT_ID":"2025-152E","EPOCH":"2026-03-09T14:05:49.149024","MEAN_MOTION":15.05658271,"ECCENTRICITY":0.0002331,"INCLINATION":97.6015,"RA_OF_ASC_NODE":285.4239,"ARG_OF_PERICENTER":67.6567,"MEAN_ANOMALY":292.4907,"EPHEMERIS_TYPE":0,"CLASSIFICATION_TYPE":"U","NORAD_CAT_ID":64846,"ELEMENT_SET_NO":999,"REV_AT_EPOCH":3540,"BSTAR":0.00032716,"MEAN_MOTION_DOT":4.664e-5,"MEAN_MOTION_DDOT":0},{"OBJECT_NAME":"UNKNOWN","OBJECT_ID":"","EPOCH":"2026-03-07T07:12:28.467936","MEAN_MOTION":13.84167479,"ECCENTRICITY":0.0562172,"INCLINATION":65.7706,"RA_OF_ASC_NODE":175.5588,"ARG_OF_PERICENTER":267.1474,"MEAN_ANOMALY":86.5158,"EPHEMERIS_TYPE":0,"CLASSIFICATION_TYPE":"U","NORAD_CAT_ID":81052,"ELEMENT_SET_NO":999,"REV_AT_EPOCH":61201,"BSTAR":0.0024773,"MEAN_MOTION_DOT":9.583e-5,"MEAN_MOTION_DDOT":0}]
